NESS                    
1 58020U 23155E   26068.76452457  .00019469  00000+0  74047-3 0  9996
2 58020  97.5941 152.6141 0006891 179.8776 180.2465 15.26794015133307
STARLINK-31319          
1 59457U 24068C   26068.29553799 -.00002903  00000+0 -96010-4 0  9996
2 59457  43.0046  33.1830 0001456 274.6814  85.3871 15.27575038108504
