[{"OBJECT_NAME":"NESS","OBJECT_ID":"2023-155E","EPOCH":"2026-03-09T18:20:54.923712","MEAN_MOTION":15.26794015,"ECCENTRICITY":0.00068914,"INCLINATION":97.5941,"RA_OF_ASC_NODE":152.6141,"ARG_OF_PERICENTER":179.8776,"MEAN_ANOMALY":180.2465,"EPHEMERIS_TYPE":0,"CLASSIFICATION_TYPE":"U","NORAD_CAT_ID":58020,"ELEMENT_SET_NO":999,"REV_AT_EPOCH":13330,"BSTAR":0.00074047066,"MEAN_MOTION_DOT":0.00019469,"MEAN_MOTION_DDOT":0},{"OBJECT_NAME":"STARLINK-31319","OBJECT_ID":"2024-068C","EPOCH":"2026-03-09T07:05:34.482336","MEAN_MOTION":15.27575038,"ECCENTRICITY":0.00014568,"INCLINATION":43.0046,"RA_OF_ASC_NODE":33.183,"ARG_OF_PERICENTER":274.6814,"MEAN_ANOMALY":85.3871,"EPHEMERIS_TYPE":0,"CLASSIFICATION_TYPE":"U","NORAD_CAT_ID":59457,"ELEMENT_SET_NO":999,"REV_AT_EPOCH":10850,"BSTAR":-9.6009929e-5,"MEAN_MOTION_DOT":-2.903e-5,"MEAN_MOTION_DDOT":0}]
